      2.10          N: GNSS NAV DATA                        RINEX VERSION / TYPE
fic2rin                                 03/07/2021 00:17:23 PGM / RUN BY / DATE
                                                            END OF HEADER
12 21  3  6 20  0  0.0-1.025479286909e-05-5.343281372916e-12 0.000000000000e+00
    2.200000000000e+01 1.000000000000e+02 4.261963242162e-09-2.100546744112e+00
    5.153939127922e-06 8.451373898424e-03 8.020550012589e-06 5.153787061691e+03
    5.904000000000e+05 1.229345798492e-07 2.313880986225e+00 1.303851604462e-08
    9.744848558000e-01 2.318750000000e+02 1.179240266879e+00-7.809253858197e-09
    1.428630936784e-11 1.000000000000e+00 2.147000000000e+03 0.000000000000e+00
    2.400000000000e+00 0.000000000000e+00-1.257285475731e-08 2.200000000000e+01
    5.832000000000e+05 4.000000000000e+00
13 21  3  6 20  0  0.0 1.047672703862e-04 4.433786671143e-12 0.000000000000e+00
    1.800000000000e+01-2.406250000000e+00 4.548760902721e-09 7.553581398127e-01
   -2.458691596985e-07 4.919489496388e-03 7.608905434608e-06 5.153674114227e+03
    5.904000000000e+05-4.470348358154e-08 2.784111873435e-01 1.490116119385e-08
    9.684319781191e-01 2.362187500000e+02 1.015975014843e+00-7.984618305688e-09
    1.182192100189e-10 1.000000000000e+00 2.147000000000e+03 0.000000000000e+00
    2.400000000000e+00 0.000000000000e+00-1.117587089539e-08 1.800000000000e+01
    5.832000000000e+05 4.000000000000e+00
17 21  3  6 20  0  0.0 4.052910953760e-04 6.366462912410e-12 0.000000000000e+00
    1.600000000000e+01 1.981250000000e+01 4.198389165475e-09 1.323896931770e+00
    7.078051567078e-07 1.344336813781e-02 3.712251782417e-06 5.153559921265e+03
    5.904000000000e+05-1.732259988785e-07-2.933995294464e+00-3.594905138016e-07
    9.829397835246e-01 3.217812500000e+02-1.573645757668e+00-8.204270312218e-09
   -4.107313943255e-11 1.000000000000e+00 2.147000000000e+03 0.000000000000e+00
    2.400000000000e+00 0.000000000000e+00-1.117587089539e-08 1.600000000000e+01
    5.832000000000e+05 4.000000000000e+00
10 21  3  6 20  0  0.0-7.548369467258e-05-7.958078640513e-12 0.000000000000e+00
    5.300000000000e+01-6.481250000000e+01 4.086598794672e-09-2.857279503194e+00
   -3.369525074959e-06 6.534186308272e-03 9.296461939812e-06 5.153673593521e+03
    5.904000000000e+05 1.303851604462e-08-9.016826249406e-01-4.656612873077e-08
    9.683059404120e-01 2.055312500000e+02-2.577951788897e+00-7.668890868658e-09
    2.903692379014e-10 1.000000000000e+00 2.147000000000e+03 0.000000000000e+00
    2.400000000000e+00 0.000000000000e+00 2.328306436539e-09 5.300000000000e+01
    5.832000000000e+05 4.000000000000e+00
 9 21  3  6 20  0  0.0-3.288071602583e-04-3.296918293927e-12 0.000000000000e+00
    5.700000000000e+01-3.812500000000e+00 4.814129099229e-09 1.840453217784e+00
   -1.657754182816e-07 1.904402510263e-03 7.444992661476e-06 5.153547754288e+03
    5.904000000000e+05 3.911554813385e-08 1.311211894496e-01-1.862645149231e-08
    9.535797169485e-01 2.314687500000e+02 1.824721478060e+00-8.080336578452e-09
    2.282237921513e-10 1.000000000000e+00 2.147000000000e+03 0.000000000000e+00
    2.400000000000e+00 0.000000000000e+00 1.396983861923e-09 5.700000000000e+01
    5.832000000000e+05 4.000000000000e+00
 8 21  3  6 20  0  0.0-1.273630186915e-05-1.477928890381e-12 0.000000000000e+00
    5.500000000000e+01 4.071875000000e+01 4.483401037363e-09 1.412336961069e+00
    2.404674887657e-06 6.271004327573e-03 3.848224878311e-06 5.153568422318e+03
    5.904000000000e+05 1.061707735062e-07-3.010715857772e+00 6.332993507385e-08
    9.682588198206e-01 3.054062500000e+02-7.845584308649e-03-8.271058808513e-09
   -1.392915163365e-10 1.000000000000e+00 2.147000000000e+03 0.000000000000e+00
    3.400000000000e+00 0.000000000000e+00 5.122274160385e-09 5.500000000000e+01
    5.832000000000e+05 4.000000000000e+00
 6 21  3  6 20  0  0.0-3.790482878685e-07 1.705302565824e-12 0.000000000000e+00
    8.900000000000e+01-8.871875000000e+01 3.939806965917e-09-4.956994483289e-01
   -4.578381776810e-06 2.325518988073e-03 6.249174475670e-06 5.153724208832e+03
    5.904000000000e+05-6.332993507385e-08-1.945725668815e+00 2.048909664154e-08
    9.827902586677e-01 2.715625000000e+02-1.048942318486e+00-7.966046103509e-09
   -1.314340461842e-10 1.000000000000e+00 2.147000000000e+03 0.000000000000e+00
    3.400000000000e+00 0.000000000000e+00 3.725290298462e-09 8.900000000000e+01
    5.832000000000e+05 4.000000000000e+00
 7 21  3  6 20  0  0.0 8.121551945806e-05 1.273292582482e-11 0.000000000000e+00
    5.500000000000e+01 2.796875000000e+01 4.823058042584e-09-1.416668968715e+00
    1.467764377594e-06 1.452025084291e-02 7.871538400650e-06 5.153593980789e+03
    5.904000000000e+05 3.483146429062e-07 1.203792776492e+00 1.676380634308e-08
    9.517949817614e-01 2.174062500000e+02-2.348775700530e+00-7.968189049915e-09
   -1.342913080577e-10 1.000000000000e+00 2.147000000000e+03 0.000000000000e+00
    2.400000000000e+00 0.000000000000e+00-1.117587089539e-08 5.500000000000e+01
    5.832000000000e+05 4.000000000000e+00
 4 21  3  6 20  0  0.0-1.845620572567e-04-2.387423592154e-12 0.000000000000e+00
    2.040000000000e+02 9.375000000000e-02 4.688766734526e-09 9.337161845469e-01
    4.097819328308e-08 1.108272350393e-03 7.495284080505e-06 5.153767028809e+03
    5.904000000000e+05 1.862645149231e-09 1.812790518001e-01 2.235174179077e-08
    9.607470222155e-01 2.351562500000e+02-3.028260726460e+00-8.029620180196e-09
    1.875078104529e-10 1.000000000000e+00 2.147000000000e+03 0.000000000000e+00
    2.400000000000e+00 0.000000000000e+00-4.190951585770e-09 9.720000000000e+02
    5.832000000000e+05 4.000000000000e+00
15 21  3  6 20  0  0.0-1.649241894484e-04 2.614797267597e-12 0.000000000000e+00
    6.800000000000e+01-7.000000000000e+00 5.425583140173e-09 4.196501157232e-01
   -2.682209014893e-07 1.305808778852e-02 7.757917046547e-06 5.153569234848e+03
    5.904000000000e+05-1.806765794754e-07 3.425946846152e-02 1.415610313416e-07
    9.292060490703e-01 2.150000000000e+02 9.704648446933e-01-8.542498686502e-09
    2.032227507576e-10 1.000000000000e+00 2.147000000000e+03 0.000000000000e+00
    2.400000000000e+00 0.000000000000e+00-1.071020960808e-08 6.800000000000e+01
    5.832000000000e+05 4.000000000000e+00
14 21  3  6 20  0  0.0 9.966222569346e-05 6.821210263297e-13 0.000000000000e+00
    2.220000000000e+02 8.840625000000e+01 4.569118893571e-09-1.330129231964e+00
    4.585832357407e-06 4.252057988197e-04 7.867813110352e-06 5.153747236252e+03
    5.904000000000e+05 7.450580596924e-09 2.288025259447e+00 3.725290298462e-09
    9.579734977728e-01 2.285000000000e+02 2.229768938621e+00-8.057478483464e-09
   -1.000041655749e-10 1.000000000000e+00 2.147000000000e+03 0.000000000000e+00
    2.400000000000e+00 0.000000000000e+00-7.916241884232e-09 4.780000000000e+02
    5.832000000000e+05 4.000000000000e+00
11 21  3  6 20  0  0.0-6.231479346752e-06 1.068656274583e-11 0.000000000000e+00
    6.200000000000e+01-3.459375000000e+01 5.740596261734e-09-1.494745645379e+00
   -1.650303602219e-06 1.532105403021e-02 3.444030880928e-06 5.154077129364e+03
    5.904000000000e+05-3.892928361893e-07-2.430490546201e+00 3.166496753693e-08
    9.143549187354e-01 2.872500000000e+02 2.083735790702e+00-8.975373860348e-09
   -9.214669542259e-11 1.000000000000e+00 2.147000000000e+03 0.000000000000e+00
    2.400000000000e+00 6.300000000000e+01-1.257285475731e-08 6.200000000000e+01
    5.832000000000e+05 4.000000000000e+00
31 21  3  6 20  0  0.0-1.040291972458e-04-2.273736754432e-12 0.000000000000e+00
    6.600000000000e+01 1.518750000000e+01 4.815914887900e-09-1.925615586441e+00
    4.656612873077e-07 9.972341358662e-03 8.434057235718e-06 5.153747016907e+03
    5.904000000000e+05 1.676380634308e-08 1.220517765910e+00-1.583248376846e-07
    9.561212430647e-01 2.140625000000e+02 2.510657930295e-01-8.049263855577e-09
   -1.182192100189e-10 1.000000000000e+00 2.147000000000e+03 0.000000000000e+00
    2.400000000000e+00 0.000000000000e+00-1.303851604462e-08 6.600000000000e+01
    5.832000000000e+05 4.000000000000e+00
29 21  3  6 20  0  0.0-3.070565871894e-04-6.934897101019e-12 0.000000000000e+00
    7.800000000000e+01 3.453125000000e+01 4.095527738026e-09 1.526524153995e+00
    1.633539795876e-06 1.576265436597e-03 3.568828105927e-06 5.153678415298e+03
    5.904000000000e+05-7.636845111847e-08-2.921700944092e+00-1.303851604462e-08
    9.847548406147e-01 3.192500000000e+02 2.121478866487e+00-8.102123200238e-09
   -7.000291590243e-11 1.000000000000e+00 2.147000000000e+03 0.000000000000e+00
    2.400000000000e+00 0.000000000000e+00-1.024454832077e-08 7.800000000000e+01
    5.832000000000e+05 4.000000000000e+00
27 21  3  6 20  0  0.0-8.901068940759e-05-7.275957614183e-12 0.000000000000e+00
    4.300000000000e+01 3.709375000000e+01 4.311608167215e-09 1.375683513483e+00
    2.110376954079e-06 9.196143946610e-03 4.425644874573e-06 5.153683147430e+03
    5.904000000000e+05-5.029141902924e-08-2.994150594139e+00 2.123415470123e-07
    9.768085358592e-01 3.032812500000e+02 5.841748070998e-01-8.244271978448e-09
   -8.750364487804e-11 1.000000000000e+00 2.147000000000e+03 0.000000000000e+00
    2.400000000000e+00 0.000000000000e+00 1.862645149231e-09 4.300000000000e+01
    5.832000000000e+05 4.000000000000e+00
22 21  3  6 20  0  0.0-6.659650243819e-04 7.844391802792e-12 0.000000000000e+00
    5.800000000000e+01-5.746875000000e+01 5.049853203798e-09 3.783802458103e-01
   -3.118067979813e-06 7.025602855720e-03 9.126961231232e-06 5.153590606689e+03
    5.904000000000e+05 2.421438694000e-08-9.953587496472e-01-1.639127731323e-07
    9.338039523171e-01 1.932812500000e+02-1.026542444550e+00-8.362491188467e-09
    1.317912039184e-10 1.000000000000e+00 2.147000000000e+03 0.000000000000e+00
    2.400000000000e+00 0.000000000000e+00-1.816079020500e-08 5.800000000000e+01
    5.832000000000e+05 4.000000000000e+00
